start=new Date('2021-12-24T00:00:00.000Z').valueOf();
sats=[{"SITE":"AFETR","TLE_LINE2":"2 48647  53.0544 180.8126 0002649  86.7303 273.3989 15.06400317 32076","MEAN_MOTION_DOT":"0.00001175","ECCENTRICITY":"0.00026490","CLASSIFICATION_TYPE":"U","DECAY_DATE":null,"COUNTRY_CODE":"US","EPOCH":"2021-12-23T20:07:06.619584","ARG_OF_PERICENTER":"86.7303","FILE":"3249421","MEAN_MOTION":"15.06400317","MEAN_ANOMALY":"273.3989","SEMIMAJOR_AXIS":"6925.348","RA_OF_ASC_NODE":"180.8126","REF_FRAME":"TEME","OBJECT_ID":"2021-044K","OBJECT_TYPE":"PAYLOAD","GP_ID":"192325719","LAUNCH_DATE":"2021-05-26","MEAN_ELEMENT_THEORY":"SGP4","INCLINATION":"53.0544","PERIAPSIS":"545.378","ELEMENT_SET_NO":"999","REV_AT_EPOCH":"3207","TIME_SYSTEM":"UTC","EPHEMERIS_TYPE":"0","PERIOD":"95.592","NORAD_CAT_ID":"48647","MEAN_MOTION_DDOT":"0.0000000000000","CENTER_NAME":"EARTH","TLE_LINE1":"1 48647U 21044K   21357.83827106  .00001175  00000-0  97800-4 0  9995","RCS_SIZE":"LARGE","APOAPSIS":"549.047","BSTAR":"0.00009780000000","OBJECT_NAME":"STARLINK-2691"},{"SITE":"AFETR","TLE_LINE2":"2 48648  53.0547 180.5157 0002681  87.6218 272.5078 15.06387007 32083","DECAY_DATE":null,"CLASSIFICATION_TYPE":"U","ECCENTRICITY":"0.00026810","MEAN_MOTION_DOT":"-0.00000966","COUNTRY_CODE":"US","EPOCH":"2021-12-23T21:41:19.021632","MEAN_MOTION":"15.06387007","FILE":"3249421","ARG_OF_PERICENTER":"87.6218","REF_FRAME":"TEME","RA_OF_ASC_NODE":"180.5157","SEMIMAJOR_AXIS":"6925.388","MEAN_ANOMALY":"272.5078","LAUNCH_DATE":"2021-05-26","GP_ID":"192326876","OBJECT_TYPE":"PAYLOAD","OBJECT_ID":"2021-044L","PERIAPSIS":"545.397","MEAN_ELEMENT_THEORY":"SGP4","INCLINATION":"53.0547","ELEMENT_SET_NO":"999","PERIOD":"95.593","EPHEMERIS_TYPE":"0","TIME_SYSTEM":"UTC","REV_AT_EPOCH":"3208","CENTER_NAME":"EARTH","MEAN_MOTION_DDOT":"0.0000000000000","NORAD_CAT_ID":"48648","APOAPSIS":"549.110","RCS_SIZE":"LARGE","TLE_LINE1":"1 48648U 21044L   21357.90369238 -.00000966  00000-0 -45955-4 0  9994","OBJECT_NAME":"STARLINK-2521","BSTAR":"-0.00004595500000"},{"OBJECT_NAME":"STARLINK-2673","BSTAR":"0.00014938000000","CENTER_NAME":"EARTH","NORAD_CAT_ID":"48649","MEAN_MOTION_DDOT":"0.0000000000000","RCS_SIZE":"LARGE","APOAPSIS":"549.057","TLE_LINE1":"1 48649U 21044M   21357.83459053  .00001944  00000-0  14938-3 0  9993","ELEMENT_SET_NO":"999","EPHEMERIS_TYPE":"0","PERIOD":"95.592","REV_AT_EPOCH":"3206","TIME_SYSTEM":"UTC","LAUNCH_DATE":"2021-05-26","OBJECT_ID":"2021-044M","OBJECT_TYPE":"PAYLOAD","GP_ID":"192326649","PERIAPSIS":"545.378","MEAN_ELEMENT_THEORY":"SGP4","INCLINATION":"53.0529","FILE":"3249421","MEAN_MOTION":"15.06398653","ARG_OF_PERICENTER":"80.9083","RA_OF_ASC_NODE":"180.8208","REF_FRAME":"TEME","SEMIMAJOR_AXIS":"6925.353","MEAN_ANOMALY":"279.2206","COUNTRY_CODE":"US","EPOCH":"2021-12-23T20:01:48.621792","TLE_LINE2":"2 48649  53.0529 180.8208 0002656  80.9083 279.2206 15.06398653 32066","CLASSIFICATION_TYPE":"U","DECAY_DATE":null,"MEAN_MOTION_DOT":"0.00001944","ECCENTRICITY":"0.00026560","SITE":"AFETR"},{"TLE_LINE1":"1 48650U 21044N   21357.83091760 -.00000346  00000-0 -43130-5 0  9997","APOAPSIS":"549.152","RCS_SIZE":"LARGE","MEAN_MOTION_DDOT":"0.0000000000000","NORAD_CAT_ID":"48650","CENTER_NAME":"EARTH","BSTAR":"-0.00000431300000","OBJECT_NAME":"STARLINK-2672","INCLINATION":"53.0535","MEAN_ELEMENT_THEORY":"SGP4","PERIAPSIS":"545.360","GP_ID":"192325961","OBJECT_ID":"2021-044N","OBJECT_TYPE":"PAYLOAD","LAUNCH_DATE":"2021-05-26","TIME_SYSTEM":"UTC","REV_AT_EPOCH":"3206","PERIOD":"95.593","EPHEMERIS_TYPE":"0","ELEMENT_SET_NO":"999","EPOCH":"2021-12-23T19:56:31.280640","COUNTRY_CODE":"US","SEMIMAJOR_AXIS":"6925.391","MEAN_ANOMALY":"270.3678","RA_OF_ASC_NODE":"180.8418","REF_FRAME":"TEME","ARG_OF_PERICENTER":"89.7625","MEAN_MOTION":"15.06386179","FILE":"3249421","SITE":"AFETR","ECCENTRICITY":"0.00027380","MEAN_MOTION_DOT":"-0.00000346","DECAY_DATE":null,"CLASSIFICATION_TYPE":"U","TLE_LINE2":"2 48650  53.0535 180.8418 0002738  89.7625 270.3678 15.06386179 32063"},{"REV_AT_EPOCH":"3206","TIME_SYSTEM":"UTC","EPHEMERIS_TYPE":"0","PERIOD":"95.593","ELEMENT_SET_NO":"999","MEAN_ELEMENT_THEORY":"SGP4","INCLINATION":"53.0554","PERIAPSIS":"545.587","OBJECT_ID":"2021-044P","OBJECT_TYPE":"PAYLOAD","GP_ID":"192326194","LAUNCH_DATE":"2021-05-26","BSTAR":"-0.00011585000000","OBJECT_NAME":"STARLINK-2731","TLE_LINE1":"1 48651U 21044P   21357.82724015 -.00002006  00000-0 -11585-3 0  9995","APOAPSIS":"548.928","RCS_SIZE":"LARGE","NORAD_CAT_ID":"48651","MEAN_MOTION_DDOT":"0.0000000000000","CENTER_NAME":"EARTH","MEAN_MOTION_DOT":"-0.00002006","ECCENTRICITY":"0.00024120","CLASSIFICATION_TYPE":"U","DECAY_DATE":null,"TLE_LINE2":"2 48651  53.0554 180.8490 0002412  85.0062 275.1202 15.06385779 32069","SITE":"AFETR","SEMIMAJOR_AXIS":"6925.392","MEAN_ANOMALY":"275.1202","RA_OF_ASC_NODE":"180.8490","REF_FRAME":"TEME","ARG_OF_PERICENTER":"85.0062","FILE":"3249421","MEAN_MOTION":"15.06385779","EPOCH":"2021-12-23T19:51:13.548960","COUNTRY_CODE":"US"},{"FILE":"3249421","MEAN_MOTION":"15.06394578","ARG_OF_PERICENTER":"85.0790","RA_OF_ASC_NODE":"180.8711","REF_FRAME":"TEME","MEAN_ANOMALY":"275.0510","SEMIMAJOR_AXIS":"6925.365","COUNTRY_CODE":"US","EPOCH":"2021-12-23T19:45:53.088768","TLE_LINE2":"2 48652  53.0548 180.8711 0002726  85.0790 275.0510 15.06394578 32063","CLASSIFICATION_TYPE":"U","DECAY_DATE":null,"MEAN_MOTION_DOT":"0.00001210","ECCENTRICITY":"0.00027260","SITE":"AFETR","OBJECT_NAME":"STARLINK-2727","BSTAR":"0.00010018000000","CENTER_NAME":"EARTH","NORAD_CAT_ID":"48652","MEAN_MOTION_DDOT":"0.0000000000000","APOAPSIS":"549.118","RCS_SIZE":"LARGE","TLE_LINE1":"1 48652U 21044Q   21357.82353112  .00001210  00000-0  10018-3 0  9996","ELEMENT_SET_NO":"999","EPHEMERIS_TYPE":"0","PERIOD":"95.592","REV_AT_EPOCH":"3206","TIME_SYSTEM":"UTC","LAUNCH_DATE":"2021-05-26","OBJECT_ID":"2021-044Q","OBJECT_TYPE":"PAYLOAD","GP_ID":"192326420","PERIAPSIS":"545.342","INCLINATION":"53.0548","MEAN_ELEMENT_THEORY":"SGP4"},{"SITE":"AFETR","TLE_LINE2":"2 48653  53.0542 180.5902 0002722  84.1339 275.9960 15.06385356 32075","DECAY_DATE":null,"CLASSIFICATION_TYPE":"U","ECCENTRICITY":"0.00027220","MEAN_MOTION_DOT":"-0.00000943","COUNTRY_CODE":"US","EPOCH":"2021-12-23T21:16:08.208768","MEAN_MOTION":"15.06385356","FILE":"3249421","ARG_OF_PERICENTER":"84.1339","RA_OF_ASC_NODE":"180.5902","REF_FRAME":"TEME","SEMIMAJOR_AXIS":"6925.393","MEAN_ANOMALY":"275.9960","LAUNCH_DATE":"2021-05-26","GP_ID":"192327106","OBJECT_TYPE":"PAYLOAD","OBJECT_ID":"2021-044R","PERIAPSIS":"545.373","MEAN_ELEMENT_THEORY":"SGP4","INCLINATION":"53.0542","ELEMENT_SET_NO":"999","PERIOD":"95.593","EPHEMERIS_TYPE":"0","TIME_SYSTEM":"UTC","REV_AT_EPOCH":"3207","CENTER_NAME":"EARTH","MEAN_MOTION_DDOT":"0.0000000000000","NORAD_CAT_ID":"48653","RCS_SIZE":"LARGE","APOAPSIS":"549.144","TLE_LINE1":"1 48653U 21044R   21357.88620612 -.00000943  00000-0 -44420-4 0  9994","OBJECT_NAME":"STARLINK-2720","BSTAR":"-0.00004442000000"},{"CENTER_NAME":"EARTH","NORAD_CAT_ID":"48654","MEAN_MOTION_DDOT":"0.0000000000000","RCS_SIZE":"LARGE","APOAPSIS":"549.010","TLE_LINE1":"1 48654U 21044S   21357.88252024 -.00000591  00000-0 -20774-4 0  9998","OBJECT_NAME":"STARLINK-2651","BSTAR":"-0.00002077400000","LAUNCH_DATE":"2021-05-26","OBJECT_ID":"2021-044S","OBJECT_TYPE":"PAYLOAD","GP_ID":"192325487","PERIAPSIS":"545.442","MEAN_ELEMENT_THEORY":"SGP4","INCLINATION":"53.0534","ELEMENT_SET_NO":"999","EPHEMERIS_TYPE":"0","PERIOD":"95.592","REV_AT_EPOCH":"3207","TIME_SYSTEM":"UTC","COUNTRY_CODE":"US","EPOCH":"2021-12-23T21:10:49.748736","FILE":"3249421","MEAN_MOTION":"15.06395945","ARG_OF_PERICENTER":"85.8658","RA_OF_ASC_NODE":"180.6181","REF_FRAME":"TEME","SEMIMAJOR_AXIS":"6925.361","MEAN_ANOMALY":"274.2625","SITE":"AFETR","TLE_LINE2":"2 48654  53.0534 180.6181 0002576  85.8658 274.2625 15.06395945 32071","CLASSIFICATION_TYPE":"U","DECAY_DATE":null,"MEAN_MOTION_DOT":"-0.00000591","ECCENTRICITY":"0.00025760"},{"LAUNCH_DATE":"2021-05-26","OBJECT_TYPE":"PAYLOAD","OBJECT_ID":"2021-044T","GP_ID":"192325720","PERIAPSIS":"545.539","INCLINATION":"53.0547","MEAN_ELEMENT_THEORY":"SGP4","ELEMENT_SET_NO":"999","EPHEMERIS_TYPE":"0","PERIOD":"95.593","REV_AT_EPOCH":"3207","TIME_SYSTEM":"UTC","CENTER_NAME":"EARTH","NORAD_CAT_ID":"48655","MEAN_MOTION_DDOT":"0.0000000000000","APOAPSIS":"548.960","RCS_SIZE":"LARGE","TLE_LINE1":"1 48655U 21044T   21357.87883175 -.00000867  00000-0 -39286-4 0  9999","OBJECT_NAME":"STARLINK-2657","BSTAR":"-0.00003928600000","SITE":"AFETR","TLE_LINE2":"2 48655  53.0547 180.6306 0002470  84.1919 275.9351 15.06388196 32074","CLASSIFICATION_TYPE":"U","DECAY_DATE":null,"MEAN_MOTION_DOT":"-0.00000867","ECCENTRICITY":"0.00024700","COUNTRY_CODE":"US","EPOCH":"2021-12-23T21:05:31.063200","FILE":"3249421","MEAN_MOTION":"15.06388196","ARG_OF_PERICENTER":"84.1919","REF_FRAME":"TEME","RA_OF_ASC_NODE":"180.6306","MEAN_ANOMALY":"275.9351","SEMIMAJOR_AXIS":"6925.385"},{"ELEMENT_SET_NO":"999","REV_AT_EPOCH":"3207","TIME_SYSTEM":"UTC","EPHEMERIS_TYPE":"0","PERIOD":"95.592","OBJECT_TYPE":"PAYLOAD","OBJECT_ID":"2021-044U","GP_ID":"192326877","LAUNCH_DATE":"2021-05-26","INCLINATION":"53.0543","MEAN_ELEMENT_THEORY":"SGP4","PERIAPSIS":"545.515","BSTAR":"-0.00000251510000","OBJECT_NAME":"STARLINK-2701","NORAD_CAT_ID":"48656","MEAN_MOTION_DDOT":"0.0000000000000","CENTER_NAME":"EARTH","TLE_LINE1":"1 48656U 21044U   21357.87514335 -.00000319  00000-0 -25151-5 0  9998","APOAPSIS":"548.940","RCS_SIZE":"LARGE","TLE_LINE2":"2 48656  53.0543 180.6409 0002473  89.4637 270.6635 15.06395403 32079","MEAN_MOTION_DOT":"-0.00000319","ECCENTRICITY":"0.00024730","CLASSIFICATION_TYPE":"U","DECAY_DATE":null,"SITE":"AFETR","ARG_OF_PERICENTER":"89.4637","FILE":"3249421","MEAN_MOTION":"15.06395403","SEMIMAJOR_AXIS":"6925.363","MEAN_ANOMALY":"270.6635","REF_FRAME":"TEME","RA_OF_ASC_NODE":"180.6409","COUNTRY_CODE":"US","EPOCH":"2021-12-23T21:00:12.385440"}];
